satname,norad_id,inclination_deg,eccentricity,mean_motion_rev_per_day,perigee_km,apogee_km,l1,l2
STARLINK-1296,45412,53.1586,0.0002837,15.34271512,461.1443055450827,465.02601499882167,1 45412U 20019BE  26114.81251360  .00029458  00000+0  88310-3 0  9998,2 45412  53.1586 274.3623 0002837 263.1260  96.9420 15.34271512337041
STARLINK-1309,45414,53.0639,0.0005429,15.63763161,373.13098036705287,380.46548904489646,1 45414U 20019BG  26114.64595545  .00091494  00000+0  95481-3 0  9993,2 45414  53.0639 260.0441 0005429 240.0494 119.9982 15.63763161337209
STARLINK-1316,45415,53.1588,0.0003189,15.34543047,460.0966990274901,464.45951578299264,1 45415U 20019BH  26114.79015991  .00038021  00000+0  11255-2 0  9995,2 45415  53.1588 274.4929 0003189 279.1561  80.9081 15.34543047337061
STARLINK-1286,45417,53.0472,0.0002396,15.5459557,401.70367318993704,404.95335146344405,1 45417U 20019BK  26114.82054780  .00044059  00000+0  65860-3 0  9990,2 45417  53.0472 268.4401 0002396 219.5617 140.5218 15.54595570337392
STARLINK-1308,45419,53.0493,0.0005757,15.58949932,386.7980981712735,394.5917312378642,1 45419U 20019BM  26114.83137053  .00082590  00000+0  10393-2 0  9990,2 45419  53.0493 289.0613 0005757 224.0971 135.9582 15.58949932336850
STARLINK-1329,45531,53.0434,0.0003193,15.67986041,362.5116041214378,366.8175572108503,1 45531U 20025A   26114.65424583  .00048608  00000+0  43317-3 0  9994,2 45531  53.0434 216.1334 0003193 357.9184   2.1818 15.67986041332647
STARLINK-1338,45532,53.0449,0.0002314,15.62946309,377.5879746914752,380.715247860775,1 45532U 20025B   26114.54310953  .00085699  00000+0  92488-3 0  9992,2 45532  53.0449 221.7504 0002314 313.6687  46.4134 15.62946309332556
STARLINK-1350,45535,53.0713,5.77e-05,15.37242303,453.87410616723355,454.66256574300223,1 45535U 20025E   26114.44678750  .00017066  00000+0  47049-3 0  9992,2 45535  53.0713 178.0529 0000577  99.4183 260.6885 15.37242303333192
STARLINK-1362,45538,53.16,0.0004105,15.32899013,464.3581320505864,469.97812756215717,1 45538U 20025H   26114.53674198 -.00178705  00000+0 -56654-2 0  9998,2 45538  53.1600 247.6600 0004105  47.8569 312.2781 15.32899013332201
STARLINK-1368,45540,53.1584,0.0001628,15.33465341,464.36851336245763,466.59679592200973,1 45540U 20025K   26114.74600116  .00038475  00000+0  11783-2 0  9994,2 45540  53.1584 247.0564 0001628  10.4637 349.6399 15.33465341332222
STARLINK-1371,45542,53.0471,0.0004441,15.54615158,400.25992479954493,406.28317187217635,1 45542U 20025M   26114.62799760  .00066760  00000+0  99049-3 0  9997,2 45542  53.0471 228.6621 0004441 326.8271  33.2460 15.54615158332468
STARLINK-1372,45543,53.1575,0.0001856,15.33842314,463.09133504443435,465.6312704144084,1 45543U 20025N   26114.65364250  .00041606  00000+0  12577-2 0  9995,2 45543  53.1575 247.1391 0001856 359.7985   0.3017 15.33842314331318
STARLINK-1373,45544,53.0445,0.0002824,15.59001803,388.63329673502903,392.45624820011835,1 45544U 20025P   26114.52373546  .00080538  00000+0  10124-2 0  9993,2 45544  53.0445 227.3796 0002824 312.7042  47.3732 15.59001803332473
STARLINK-1327,45555,53.0424,0.000413,15.61610004,380.21361944700675,385.7983235414604,1 45555U 20025AA  26114.51808950  .00096853  00000+0  10984-2 0  9997,2 45555  53.0424 204.0384 0004130 288.8030  71.2535 15.61610004332793
STARLINK-1356,45564,53.0461,0.0002748,15.5184463,409.47469029450895,413.2061870948146,1 45564U 20025AK  26114.75015994  .00065424  00000+0  10735-2 0  9995,2 45564  53.0461 213.3444 0002748 285.5146  74.5559 15.51844630332682
STARLINK-1357,45565,53.0442,0.0007152,15.64785587,369.02645348333044,378.6845035245824,1 45565U 20025AL  26114.31405102  .00044128  00000+0  44749-3 0  9993,2 45565  53.0442 175.6024 0007152 342.7321  17.3448 15.64785587333188
STARLINK-1361,45567,53.0459,0.0001288,15.55153456,400.8333445442822,402.57983225265343,1 45567U 20025AN  26114.74519942  .00069074  00000+0  10046-2 0  9999,2 45567  53.0459 212.3818 0001288 240.8797 119.2084 15.55153456332706
STARLINK-1363,45568,53.0351,0.000342,15.91022915,297.135470915885,301.7029193533572,1 45568U 20025AP  26114.91668980  .00235116  31523-4  73755-3 0  9994,2 45568  53.0351 164.5659 0003420  21.0452  60.2439 15.91022915  5954
STARLINK-1366,45569,53.0357,0.0003209,15.88067625,305.5554726951532,309.84644349665814,1 45569U 20025AQ  26114.91668980  .00189296  00000+0  66780-3 0  9993,2 45569  53.0357 165.8986 0003209 358.6811  88.0343 15.88067625  6003
STARLINK-1376,45570,53.1569,0.0003477,15.3432345,460.5521331343507,465.3094116632765,1 45570U 20025AR  26114.64086595  .00036932  00000+0  11014-2 0  9998,2 45570  53.1569 223.7161 0003477 334.2461  25.8367 15.34323450332546
STARLINK-1320,45572,53.0453,0.0002659,15.76449466,338.72323001512177,342.29620633984905,1 45572U 20025AT  26114.30888164  .00082293  00000+0  50803-3 0  9996,2 45572  53.0453 119.2874 0002659 121.7246 238.4032 15.76449466333982
STARLINK-1321,45573,53.0451,0.0005078,15.56377687,394.70981877085705,401.5918166785377,1 45573U 20025AU  26114.65803071  .00073376  00000+0  10187-2 0  9991,2 45573  53.0451 197.0720 0005078 334.7991  25.2771 15.56377687332609
STARLINK-1331,45578,53.0484,0.0005941,15.55947589,395.37296869998136,403.4260375730082,1 45578U 20025AZ  26114.73595644  .00067860  00000+0  95820-3 0  9998,2 45578  53.0484 203.4606 0005941 309.2881  50.7602 15.55947589332833
STARLINK-1333,45580,53.156,0.0001632,15.31442819,470.3888838304856,472.624607549079,1 45580U 20025BB  26114.79849870  .00032544  00000+0  10644-2 0  9991,2 45580  53.1560 223.5601 0001632  25.8108 334.2974 15.31442819332568
STARLINK-1335,45581,53.1556,0.0002683,15.329888,465.064317655183,468.7373649608289,1 45581U 20025BC  26114.61213060  .00037507  00000+0  11664-2 0  9996,2 45581  53.1556 221.6491 0002683   0.5596 359.5408 15.32988800332566
STARLINK-1337,45582,53.048,0.0006655,15.67277561,362.20777413684937,371.1851474731802,1 45582U 20025BD  26114.73374939  .00092050  00000+0  83451-3 0  9991,2 45582  53.0480 196.5971 0006655 320.7654  39.2878 15.67277561332915
STARLINK-1347,45586,53.0396,0.0004419,15.6355186,374.4215283176327,380.3920779308337,1 45586U 20025BH  26114.64751557  .00086762  00000+0  91398-3 0  9992,2 45586  53.0396 165.9383 0004419 348.4294  11.6617 15.63551860333330
STARLINK-1364,45589,53.0452,0.0004673,15.57510744,391.6989891730009,398.0290359193259,1 45589U 20025BL  26114.61688762  .00069371  00000+0  92424-3 0  9997,2 45589  53.0452 201.5932 0004673 284.3694  75.6798 15.57510744332830
STARLINK-1365,45590,53.0479,0.0003509,15.52491769,407.07179641295625,411.83532746932633,1 45590U 20025BM  26114.60780631  .00088185  00000+0  14070-2 0  9990,2 45590  53.0479 233.5427 0003509 276.9625  83.0984 15.52491769332406
STARLINK-1443,45660,53.1358,0.0002368,15.29115777,476.83063574232983,480.0779173709061,1 45660U 20035D   26114.52491377  .00035678  00000+0  12519-2 0  9991,2 45660  53.1358 212.8609 0002368 317.0944  42.9871 15.29115777325762
STARLINK-1446,45663,53.023,0.000457,15.44957386,428.3912822140528,434.61529343712573,1 45663U 20035G   26114.44851947  .00026304  00000+0  55677-3 0  9997,2 45663  53.0230 141.6825 0004570  47.5102 312.6289 15.44957386326746
STARLINK-1448,45665,53.0454,0.0006402,15.62133746,377.1671496050176,385.8221819899045,1 45665U 20035J   26114.66477168  .00090616  00000+0  10077-2 0  9993,2 45665  53.0454 189.6759 0006402 311.4495  48.5968 15.62133746326080
STARLINK-1451,45668,53.0518,0.0001005,15.12328992,528.4052669081939,529.7936214334723,1 45668U 20035M   26114.77519999  .00016483  00000+0  95524-3 0  9998,2 45668  53.0518 217.6034 0001005  15.7911 344.3111 15.12328992325713
STARLINK-1452,45669,53.0276,0.0001476,15.51581544,411.10565890382713,413.11013919802645,1 45669U 20035N   26114.50458698  .00057792  00000+0  95905-3 0  9999,2 45669  53.0276 162.2823 0001476 316.5814  43.5078 15.51581544326462
STARLINK-1453,45670,53.042,0.000326,15.62620691,377.88711651860103,382.29348071730055,1 45670U 20035P   26114.45245543  .00085744  00000+0  93709-3 0  9996,2 45670  53.0420 151.1589 0003260  30.3515 329.7686 15.62620691326501
STARLINK-1454,45671,53.0452,0.0004725,15.59803111,385.02931189054834,391.4235253211309,1 45671U 20035Q   26114.68039584  .00049890  00000+0  61289-3 0  9998,2 45671  53.0452 190.2255 0004725 291.6800  68.3708 15.59803111326076
STARLINK-1456,45673,53.0439,0.0007108,15.58031119,388.54265135056085,398.16900555549,1 45673U 20035S   26114.53801191  .00079886  00000+0  10408-2 0  9999,2 45673  53.0439 184.9814 0007108 345.2431  14.8372 15.58031119326150
STARLINK-1457,45674,53.0383,0.000507,15.95781593,282.75865987033103,289.5162341596042,1 45674U 20035T   26114.91668980  .00316305  50828-4  76834-3 0  9993,2 45674  53.0383 148.2099 0005070   8.7998  51.2040 15.95781593  5860
STARLINK-1458,45675,53.0488,0.0005587,15.49770632,413.59982030152514,421.1931494175069,1 45675U 20035U   26114.56701912  .00067707  00000+0  11947-2 0  9992,2 45675  53.0488 196.5775 0005587 303.9416  56.1061 15.49770632325955
STARLINK-1460,45676,53.1531,0.0001954,15.31340688,470.4728151310983,473.14977492479466,1 45676U 20035V   26114.44362850  .00030674  00000+0  10073-2 0  9996,2 45676  53.1531 212.3512 0001954  31.1885 328.9232 15.31340688325726
STARLINK-1392,45677,53.1536,0.0001498,15.34282785,462.0268400089644,464.07646012852456,1 45677U 20035W   26114.74731095  .00040919  00000+0  12201-2 0  9999,2 45677  53.1536 210.5716 0001498  29.3254 330.7832 15.34282785325813
STARLINK-1394,45679,53.0447,0.0007548,15.57909868,388.59578284678537,398.81855880706553,1 45679U 20035Y   26114.53527551  .00044953  00000+0  59373-3 0  9992,2 45679  53.0447 175.2184 0007548 344.6722  15.4060 15.57909868326281
STARLINK-1402,45685,53.043,0.0007833,15.51908993,405.83466478599166,416.47076605416805,1 45685U 20035AE  26114.41347683  .00057990  00000+0  95011-3 0  9996,2 45685  53.0430 164.4481 0007833  15.4061 344.7184 15.51908993326430
